{"type": "FeatureCollection", "features": [ {"type": "Feature", "properties": {"norad_id": 66373, "name": "STARLINK-35809", "group": "last-30-days", "lat": -38.37481290969203, "lon": -179.45604955098403, "alt_km": 350.8568313474834, "timestamp": "2025-12-02T19:35:49.341889+00:00", "meta": {"OBJECT_NAME": "STARLINK-35809", "OBJECT_ID": "2025-254AB", "EPOCH": "2025-12-02T11:00:11.073600", "MEAN_MOTION": 15.74285317, "ECCENTRICITY": 0.0001241, "INCLINATION": 53.1569, "RA_OF_ASC_NODE": 325.8977, "ARG_OF_PERICENTER": 110.6055, "MEAN_ANOMALY": 249.5098, "EPHEMERIS_TYPE": 0, "CLASSIFICATION_TYPE": "U", "NORAD_CAT_ID": 66373, "ELEMENT_SET_NO": 999, "REV_AT_EPOCH": 406, "BSTAR": 0.0016398, "MEAN_MOTION_DOT": 0.00247746, "MEAN_MOTION_DDOT": 0}, "tle": {"line1": "1 66373U 25254AB  25336.45846150  .00247746  00000+0  16398-2 0  9993", "line2": "2 66373  53.1569 325.8977 0001241 110.6055 249.5098 15.74285317  4063"}}, "geometry": {"type": "Point", "coordinates": [-179.45604955098403, -38.37481290969203]}}, {"type": "Feature", "properties": {"norad_id": 66374, "name": "STARLINK-35831", "group": "last-30-days", "lat": -39.54923673670066, "lon": -177.6278336424424, "alt_km": 351.6483209552989, "timestamp": "2025-12-02T19:35:49.341900+00:00", "meta": {"OBJECT_NAME": "STARLINK-35831", "OBJECT_ID": "2025-254AC", "EPOCH": "2025-12-02T10:59:42.040608", "MEAN_MOTION": 15.74262747, "ECCENTRICITY": 0.0001554, "INCLINATION": 53.157, "RA_OF_ASC_NODE": 325.8954, "ARG_OF_PERICENTER": 75.6511, "MEAN_ANOMALY": 284.4681, "EPHEMERIS_TYPE": 0, "CLASSIFICATION_TYPE": "U", "NORAD_CAT_ID": 66374, "ELEMENT_SET_NO": 999, "REV_AT_EPOCH": 406, "BSTAR": 0.0012531, "MEAN_MOTION_DOT": 0.00187629, "MEAN_MOTION_DDOT": 0}, "tle": {"line1": "1 66374U 25254AC  25336.45812547  .00187629  00000+0  12531-2 0  9995", "line2": "2 66374  53.1570 325.8954 0001554  75.6511 284.4681 15.74262747  4063"}}, "geometry": {"type": "Point", "coordinates": [-177.6278336424424, -39.54923673670066]}}, {"type": "Feature", "properties": {"norad_id": 66375, "name": "STARLINK-35826", "group": "last-30-days", "lat": -40.75818590753634, "lon": -175.62717747379796, "alt_km": 351.06553974386225, "timestamp": "2025-12-02T19:35:49.341910+00:00", "meta": {"OBJECT_NAME": "STARLINK-35826", "OBJECT_ID": "2025-254AD", "EPOCH": "2025-12-02T10:59:12.712992", "MEAN_MOTION": 15.7427346, "ECCENTRICITY": 0.0001397, "INCLINATION": 53.1567, "RA_OF_ASC_NODE": 325.8929, "ARG_OF_PERICENTER": 117.7092, "MEAN_ANOMALY": 242.407, "EPHEMERIS_TYPE": 0, "CLASSIFICATION_TYPE": "U", "NORAD_CAT_ID": 66375, "ELEMENT_SET_NO": 999, "REV_AT_EPOCH": 406, "BSTAR": 0.0014219, "MEAN_MOTION_DOT": 0.00213757, "MEAN_MOTION_DDOT": 0}, "tle": {"line1": "1 66375U 25254AD  25336.45778603  .00213757  00000+0  14219-2 0  9997", "line2": "2 66375  53.1567 325.8929 0001397 117.7092 242.4070 15.74273460  4069"}}, "geometry": {"type": "Point", "coordinates": [-175.62717747379796, -40.75818590753634]}}, {"type": "Feature", "properties": {"norad_id": 66376, "name": "SHIYAN-32 01", "group": "last-30-days", "lat": -36.609245268094185, "lon": 79.31409817949232, "alt_km": 450.95830708777976, "timestamp": "2025-12-02T19:35:49.341921+00:00", "meta": {"OBJECT_NAME": "SHIYAN-32 01", "OBJECT_ID": "2025-255A", "EPOCH": "2025-12-02T10:50:04.771968", "MEAN_MOTION": 15.42230531, "ECCENTRICITY": 0.0013353, "INCLINATION": 52.9966, "RA_OF_ASC_NODE": 226.9722, "ARG_OF_PERICENTER": 10.3177, "MEAN_ANOMALY": 349.8098, "EPHEMERIS_TYPE": 0, "CLASSIFICATION_TYPE": "U", "NORAD_CAT_ID": 66376, "ELEMENT_SET_NO": 999, "REV_AT_EPOCH": 376, "BSTAR": 0.00056984, "MEAN_MOTION_DOT": 0.00024596, "MEAN_MOTION_DDOT": 0}, "tle": {"line1": "1 66376U 25255A   25336.45144412  .00024596  00000+0  56984-3 0  9991", "line2": "2 66376  52.9966 226.9722 0013353  10.3177 349.8098 15.42230531  3764"}}, "geometry": {"type": "Point", "coordinates": [79.31409817949232, -36.609245268094185]}}, {"type": "Feature", "properties": {"norad_id": 66377, "name": "CZ-11 DEB", "group": "last-30-days", "lat": -47.964289690159426, "lon": 168.33333947313392, "alt_km": 438.4650691361321, "timestamp": "2025-12-02T19:35:49.341932+00:00", "meta": {"OBJECT_NAME": "CZ-11 DEB", "OBJECT_ID": "2025-255B", "EPOCH": "2025-12-02T07:27:35.402688", "MEAN_MOTION": 15.43429232, "ECCENTRICITY": 0.0013912, "INCLINATION": 52.9966, "RA_OF_ASC_NODE": 227.5182, "ARG_OF_PERICENTER": 7.4818, "MEAN_ANOMALY": 352.6391, "EPHEMERIS_TYPE": 0, "CLASSIFICATION_TYPE": "U", "NORAD_CAT_ID": 66377, "ELEMENT_SET_NO": 999, "REV_AT_EPOCH": 360, "BSTAR": 0.0009775, "MEAN_MOTION_DOT": 0.00044379, "MEAN_MOTION_DDOT": 0}, "tle": {"line1": "1 66377U 25255B   25336.31082642  .00044379  00000+0  97750-3 0  9990", "line2": "2 66377  52.9966 227.5182 0013912   7.4818 352.6391 15.43429232  3602"}}, "geometry": {"type": "Point", "coordinates": [168.33333947313392, -47.964289690159426]}}, {"type": "Feature", "properties": {"norad_id": 66378, "name": "SHIYAN-32 02", "group": "last-30-days", "lat": -31.800842515598095, "lon": -162.81893383293126, "alt_km": 432.8924250853579, "timestamp": "2025-12-02T19:35:49.341942+00:00", "meta": {"OBJECT_NAME": "SHIYAN-32 02", "OBJECT_ID": "2025-255C", "EPOCH": "2025-12-02T10:27:13.609152", "MEAN_MOTION": 15.43954139, "ECCENTRICITY": 0.0012583, "INCLINATION": 52.9978, "RA_OF_ASC_NODE": 226.8746, "ARG_OF_PERICENTER": 8.9715, "MEAN_ANOMALY": 351.1512, "EPHEMERIS_TYPE": 0, "CLASSIFICATION_TYPE": "U", "NORAD_CAT_ID": 66378, "ELEMENT_SET_NO": 999, "REV_AT_EPOCH": 362, "BSTAR": 0.0013391, "MEAN_MOTION_DOT": 0.00062154, "MEAN_MOTION_DDOT": 0}, "tle": {"line1": "1 66378U 25255C   25336.43557418  .00062154  00000+0  13391-2 0  9991", "line2": "2 66378  52.9978 226.8746 0012583   8.9715 351.1512 15.43954139  3629"}}, "geometry": {"type": "Point", "coordinates": [-162.81893383293126, -31.800842515598095]}}, {"type": "Feature", "properties": {"norad_id": 66379, "name": "SHIYAN-32 03", "group": "last-30-days", "lat": -51.61320152538027, "lon": 117.34825321011239, "alt_km": 447.3379443106278, "timestamp": "2025-12-02T19:35:49.341958+00:00", "meta": {"OBJECT_NAME": "SHIYAN-32 03", "OBJECT_ID": "2025-255D", "EPOCH": "2025-12-02T10:42:12.703968", "MEAN_MOTION": 15.42586186, "ECCENTRICITY": 0.0015379, "INCLINATION": 52.9972, "RA_OF_ASC_NODE": 226.9389, "ARG_OF_PERICENTER": 11.2025, "MEAN_ANOMALY": 348.9318, "EPHEMERIS_TYPE": 0, "CLASSIFICATION_TYPE": "U", "NORAD_CAT_ID": 66379, "ELEMENT_SET_NO": 999, "REV_AT_EPOCH": 364, "BSTAR": 0.00052998, "MEAN_MOTION_DOT": 0.00023142, "MEAN_MOTION_DDOT": 0}, "tle": {"line1": "1 66379U 25255D   25336.44598037  .00023142  00000+0  52998-3 0  9996", "line2": "2 66379  52.9972 226.9389 0015379  11.2025 348.9318 15.42586186  3647"}}, "geometry": {"type": "Point", "coordinates": [117.34825321011239, -51.61320152538027]}}, {"type": "Feature", "properties": {"norad_id": 66380, "name": "STARLINK-35139", "group": "last-30-days", "lat": -23.784000393845343, "lon": 150.7076795927487, "alt_km": 450.970320042783, "timestamp": "2025-12-02T19:35:49.341969+00:00", "meta": {"OBJECT_NAME": "STARLINK-35139", "OBJECT_ID": "2025-257A", "EPOCH": "2025-12-02T12:00:05.998752", "MEAN_MOTION": 15.395874, "ECCENTRICITY": 9.62e-05, "INCLINATION": 53.1585, "RA_OF_ASC_NODE": 312.9043, "ARG_OF_PERICENTER": 91.4453, "MEAN_ANOMALY": 163.6609, "EPHEMERIS_TYPE": 0, "CLASSIFICATION_TYPE": "U", "NORAD_CAT_ID": 66380, "ELEMENT_SET_NO": 999, "REV_AT_EPOCH": 479, "BSTAR": 0.00078761, "MEAN_MOTION_DOT": 0.00031199, "MEAN_MOTION_DDOT": 0}, "tle": {"line1": "1 66380U 25257A   25336.50006943  .00031199  00000+0  78761-3 0  9994", "line2": "2 66380  53.1585 312.9043 0000962  91.4453 163.6609 15.39587400  4790"}}, "geometry": {"type": "Point", "coordinates": [150.7076795927487, -23.784000393845343]}}, {"type": "Feature", "properties": {"norad_id": 66381, "name": "STARLINK-35158", "group": "last-30-days", "lat": -25.16587613382803, "lon": 152.0343816254472, "alt_km": 451.15744407965576, "timestamp": "2025-12-02T19:35:49.341979+00:00", "meta": {"OBJECT_NAME": "STARLINK-35158", "OBJECT_ID": "2025-257B", "EPOCH": "2025-12-02T12:00:05.998752", "MEAN_MOTION": 15.39584804, "ECCENTRICITY": 0.0001233, "INCLINATION": 53.1584, "RA_OF_ASC_NODE": 312.9001, "ARG_OF_PERICENTER": 94.1436, "MEAN_ANOMALY": 162.8018, "EPHEMERIS_TYPE": 0, "CLASSIFICATION_TYPE": "U", "NORAD_CAT_ID": 66381, "ELEMENT_SET_NO": 999, "REV_AT_EPOCH": 485, "BSTAR": 0.00078924, "MEAN_MOTION_DOT": 0.00031262, "MEAN_MOTION_DDOT": 0}, "tle": {"line1": "1 66381U 25257B   25336.50006943  .00031262  00000+0  78924-3 0  9997", "line2": "2 66381  53.1584 312.9001 0001233  94.1436 162.8018 15.39584804  4854"}}, "geometry": {"type": "Point", "coordinates": [152.0343816254472, -25.16587613382803]}}, {"type": "Feature", "properties": {"norad_id": 66382, "name": "STARLINK-35639", "group": "last-30-days", "lat": -41.578124516280376, "lon": 173.05312819076963, "alt_km": 451.57431663073294, "timestamp": "2025-12-02T19:35:49.341990+00:00", "meta": {"OBJECT_NAME": "STARLINK-35639", "OBJECT_ID": "2025-257C", "EPOCH": "2025-12-02T12:00:05.998752", "MEAN_MOTION": 15.42104335, "ECCENTRICITY": 0.0001335, "INCLINATION": 53.1586, "RA_OF_ASC_NODE": 312.854, "ARG_OF_PERICENTER": 82.926, "MEAN_ANOMALY": 196.3433, "EPHEMERIS_TYPE": 0, "CLASSIFICATION_TYPE": "U", "NORAD_CAT_ID": 66382, "ELEMENT_SET_NO": 999, "REV_AT_EPOCH": 485, "BSTAR": -0.079484, "MEAN_MOTION_DOT": -0.03039947, "MEAN_MOTION_DDOT": 0}, "tle": {"line1": "1 66382U 25257C   25336.50006943 -.03039947  00000+0 -79484-1 0  9991", "line2": "2 66382  53.1586 312.8540 0001335  82.9260 196.3433 15.42104335  4851"}}, "geometry": {"type": "Point", "coordinates": [173.05312819076963, -41.578124516280376]}}]}